[{"OBJECT_NAME":"STARLINK-3902","OBJECT_ID":"2022-049AN","EPOCH":"2026-03-09T07:46:08.337504","MEAN_MOTION":15.08818514,"ECCENTRICITY":0.00013611,"INCLINATION":53.2184,"RA_OF_ASC_NODE":50.8701,"ARG_OF_PERICENTER":87.9004,"MEAN_ANOMALY":272.2144,"EPHEMERIS_TYPE":0,"CLASSIFICATION_TYPE":"U","NORAD_CAT_ID":52487,"ELEMENT_SET_NO":999,"REV_AT_EPOCH":21357,"BSTAR":5.010715e-6,"MEAN_MOTION_DOT":-2.08e-6,"MEAN_MOTION_DDOT":0},{"OBJECT_NAME":"DMSP 5D-2 F11 DEB","OBJECT_ID":"1991-082AJ","EPOCH":"2026-03-09T06:39:32.486112","MEAN_MOTION":15.08629375,"ECCENTRICITY":0.00070318,"INCLINATION":98.5181,"RA_OF_ASC_NODE":189.4283,"ARG_OF_PERICENTER":237.8685,"MEAN_ANOMALY":152.6153,"EPHEMERIS_TYPE":0,"CLASSIFICATION_TYPE":"U","NORAD_CAT_ID":28321,"ELEMENT_SET_NO":999,"REV_AT_EPOCH":14288,"BSTAR":0.0082823802,"MEAN_MOTION_DOT":0.00131946,"MEAN_MOTION_DDOT":0}]
